NORAD_CAT_ID,OBJECT_NAME,OBJECT_TYPE,EPOCH,MEAN_MOTION,ECCENTRICITY,INCLINATION,RA_OF_ASC_NODE,ARG_OF_PERICENTER,MEAN_ANOMALY,BSTAR,MEAN_MOTION_DOT,MEAN_MOTION_DDOT,TLE_LINE0,TLE_LINE1,TLE_LINE2,SEMIMAJOR_AXIS,PERIOD,APOGEE,PERIGEE,DECAYED
56773.0,STARLINK-6296,PAYLOAD,2024-04-29 00:17:36,14.98327901,0.0002897,70.0017,218.3087,267.6886,92.3941,-0.00023128,-2.851e-05,0.0,0 STARLINK-6296,1 56773U 23078G   24120.01223132 -.00002851  00000-0 -23128-3 0  9998,2 56773  70.0017 218.3087 0002897 267.6886  92.3941 14.98327901 52114,6950.199,96.107,574.078,570.051,0.0
56773.0,STARLINK-6296,PAYLOAD,2024-04-29 13:06:40,14.98332889,0.0003063,70.0015,216.9619,270.7753,89.3055,1.0501e-05,3.2e-07,0.0,0 STARLINK-6296,1 56773U 23078G   24120.54630314  .00000032  00000-0  10501-4 0  9999,2 56773  70.0015 216.9619 0003063 270.7753  89.3055 14.98332889 52192,6950.184,96.107,574.178,569.92,0.0
56773.0,STARLINK-6296,PAYLOAD,2024-04-29 14:42:48,14.98332549,0.000307,70.0015,216.7936,270.8562,89.2246,8.0321e-06,3e-08,0.0,0 STARLINK-6296,1 56773U 23078G   24120.61306340  .00000003  00000-0  80321-5 0  9992,2 56773  70.0015 216.7936 0003070 270.8562  89.2246 14.98332549 51945,6950.185,96.107,574.184,569.916,0.0
56773.0,STARLINK-6296,PAYLOAD,2024-04-29 16:18:56,14.98333439,0.0003057,70.0016,216.6253,270.7434,89.3375,2.0692e-05,1.54e-06,0.0,0 STARLINK-6296,1 56773U 23078G   24120.67982248  .00000154  00000-0  20692-4 0  9996,2 56773  70.0016 216.6253 0003057 270.7434  89.3375 14.98333439 51953,6950.182,96.107,574.172,569.923,0.0
56773.0,STARLINK-6296,PAYLOAD,2024-04-30 09:56:24,14.98334128,0.0003006,70.002,214.7738,269.431,90.6505,0.00037016,4.327e-05,0.0,0 STARLINK-6296,1 56773U 23078G   24121.41417162  .00004327  00000-0  37016-3 0  9990,2 56773  70.0020 214.7738 0003006 269.4310  90.6505 14.98334128 52325,6950.18,96.107,574.134,569.956,0.0
56773.0,STARLINK-6296,PAYLOAD,2024-04-30 14:44:47,14.98345658,0.0003175,70.0011,214.2691,269.7649,90.3147,0.0004013,4.7e-05,0.0,0 STARLINK-6296,1 56773U 23078G   24121.61444155  .00004700  00000-0  40130-3 0  9990,2 56773  70.0011 214.2691 0003175 269.7649  90.3147 14.98345658 52096,6950.144,96.106,574.216,569.803,0.0
56773.0,STARLINK-6296,PAYLOAD,2024-04-30 16:20:55,14.98347807,0.0003158,70.0012,214.1007,269.7351,90.3446,0.00041855,4.907e-05,0.0,0 STARLINK-6296,1 56773U 23078G   24121.68119909  .00004907  00000-0  41855-3 0  9997,2 56773  70.0012 214.1007 0003158 269.7351  90.3446 14.98347807 52368,6950.138,96.106,574.198,569.808,0.0
56773.0,STARLINK-6296,PAYLOAD,2024-05-02 05:12:02,14.98340897,0.0002458,70.0024,210.2296,270.4991,89.5886,-0.00022869,-2.821e-05,0.0,0 STARLINK-6296,1 56773U 23078G   24123.21669978 -.00002821  00000-0 -22869-3 0  9993,2 56773  70.0024 210.2296 0002458 270.4991  89.5886 14.98340897 52594,6950.159,96.106,573.733,570.316,0.0
56773.0,STARLINK-6296,PAYLOAD,2024-05-02 14:48:51,14.98338632,0.0002886,70.0015,209.2208,267.7862,92.2967,-0.00026154,-3.213e-05,0.0,0 STARLINK-6296,1 56773U 23078G   24123.61725896 -.00003213  00000-0 -26154-3 0  9996,2 56773  70.0015 209.2208 0002886 267.7862  92.2967 14.98338632 52399,6950.166,96.106,574.037,570.025,0.0
56773.0,STARLINK-6296,PAYLOAD,2024-05-03 13:14:43,14.98331166,0.0002833,70.0012,206.8643,269.4084,90.6751,0.00012931,1.45e-05,0.0,0 STARLINK-6296,1 56773U 23078G   24124.55189022  .00001450  00000-0  12931-3 0  9992,2 56773  70.0012 206.8643 0002833 269.4084  90.6751 14.98331166 52791,6950.189,96.107,574.023,570.085,0.0
56773.0,STARLINK-6296,PAYLOAD,2024-05-03 14:50:51,14.98332652,0.0002825,70.0013,206.696,269.7541,90.3295,0.0001403,1.582e-05,0.0,0 STARLINK-6296,1 56773U 23078G   24124.61864901  .00001582  00000-0  14030-3 0  9993,2 56773  70.0013 206.6960 0002825 269.7541  90.3295 14.98332652 52548,6950.185,96.107,574.013,570.086,0.0
56773.0,STARLINK-6296,PAYLOAD,2024-05-03 16:26:59,14.98333416,0.0002816,70.0013,206.5276,269.1249,90.9587,0.0001479,1.672e-05,0.0,0 STARLINK-6296,1 56773U 23078G   24124.68540815  .00001672  00000-0  14790-3 0  9998,2 56773  70.0013 206.5276 0002816 269.1249  90.9587 14.98333416 52556,6950.182,96.107,574.004,570.09,0.0
56773.0,STARLINK-6296,PAYLOAD,2024-05-04 05:16:05,14.98320336,0.0002703,70.0012,205.1814,270.5562,89.5287,-1.5064e-05,-2.73e-06,0.0,0 STARLINK-6296,1 56773U 23078G   24125.21950382 -.00000273  00000-0 -15064-4 0  9996,2 56773  70.0012 205.1814 0002703 270.5562  89.5287 14.98320336 52892,6950.223,96.108,573.966,570.209,0.0
56773.0,STARLINK-6296,PAYLOAD,2024-05-04 14:52:54,14.98315666,0.0002954,70.0013,204.171,268.6878,91.3942,-7.945e-05,-1.04e-05,0.0,0 STARLINK-6296,1 56773U 23078G   24125.62007104 -.00001040  00000-0 -79450-4 0  9998,2 56773  70.0013 204.1710 0002954 268.6878  91.3942 14.98315666 52959,6950.237,96.108,574.155,570.049,0.0
56773.0,STARLINK-6296,PAYLOAD,2024-05-05 05:18:06,14.98331205,0.0003139,70.0009,202.6558,269.4141,90.6658,-6.284e-05,-8.43e-06,0.0,0 STARLINK-6296,1 56773U 23078G   24126.22090344 -.00000843  00000-0 -62840-4 0  9998,2 56773  70.0009 202.6558 0003139 269.4141  90.6658 14.98331205 53049,6950.189,96.107,574.236,569.873,0.0
56773.0,STARLINK-6296,PAYLOAD,2024-05-05 13:18:46,14.98332143,0.0003125,70.0009,201.8144,269.254,90.8261,-2.9545e-05,-4.46e-06,0.0,0 STARLINK-6296,1 56773U 23078G   24126.55470189 -.00000446  00000-0 -29545-4 0  9997,2 56773  70.0009 201.8144 0003125 269.2540  90.8261 14.98332143 52837,6950.186,96.107,574.223,569.879,0.0
56773.0,STARLINK-6296,PAYLOAD,2024-05-05 14:54:54,14.98332521,0.0003096,70.0011,201.6462,269.5444,90.536,-2.006e-05,-3.32e-06,0.0,0 STARLINK-6296,1 56773U 23078G   24126.62146149 -.00000332  00000-0 -20060-4 0  9998,2 56773  70.0011 201.6462 0003096 269.5444  90.5360 14.98332521 52842,6950.185,96.107,574.202,569.898,0.0
56773.0,STARLINK-6296,PAYLOAD,2024-05-05 22:55:34,14.98339438,0.000324,70.0007,200.8052,267.9884,92.0904,1.4956e-05,8.5e-07,0.0,0 STARLINK-6296,1 56773U 23078G   24126.95525487  .00000085  00000-0  14956-4 0  9990,2 56773  70.0007 200.8052 0003240 267.9884  92.0904 14.98339438 53154,6950.164,96.106,574.281,569.777,0.0
56773.0,STARLINK-6296,PAYLOAD,2024-05-06 14:56:53,14.98343895,0.0003321,70.0008,199.1219,269.8304,90.2474,0.0003013,3.505e-05,0.0,0 STARLINK-6296,1 56773U 23078G   24127.62284192  .00003505  00000-0  30130-3 0  9991,2 56773  70.0008 199.1219 0003321 269.8304  90.2474 14.98343895 53253,6950.15,96.106,574.323,569.707,0.0
56773.0,STARLINK-6296,PAYLOAD,2024-05-07 03:45:59,14.98333657,0.0002938,70.0016,197.7764,270.8059,89.2764,7.0032e-06,-9e-08,0.0,0 STARLINK-6296,1 56773U 23078G   24128.15693530 -.00000009  00000-0  70032-5 0  9994,2 56773  70.0016 197.7764 0002938 270.8059  89.2764 14.98333657 53337,6950.182,96.107,574.089,570.005,0.0
56773.0,STARLINK-6296,PAYLOAD,2024-05-07 13:22:47,14.9832843,0.0002739,70.0022,196.768,264.0061,96.0786,-3.0429e-05,-4.56e-06,0.0,0 STARLINK-6296,1 56773U 23078G   24128.55749882 -.00000456  00000-0 -30429-4 0  9992,2 56773  70.0022 196.7680 0002739 264.0061  96.0786 14.98328430 53138,6950.198,96.107,573.966,570.159,0.0
56773.0,STARLINK-6296,PAYLOAD,2024-05-07 14:58:54,14.98366636,0.0002922,70.0009,196.597,264.0045,96.0781,-0.00059288,-7.167e-05,0.0,0 STARLINK-6296,1 56773U 23078G   24128.62424661 -.00007167  00000-0 -59288-3 0  9994,2 56773  70.0009 196.5970 0002922 264.0045  96.0781 14.98366636 53404,6950.08,96.105,573.975,569.914,0.0
56773.0,STARLINK-6296,PAYLOAD,2024-05-08 03:48:00,14.98337288,0.0003146,70.0009,195.2511,270.3027,89.7771,-0.00015817,-1.98e-05,0.0,0 STARLINK-6296,1 56773U 23078G   24129.15833480 -.00001980  00000-0 -15817-3 0  9993,2 56773  70.0009 195.2511 0003146 270.3027  89.7771 14.98337288 53487,6950.17,96.107,574.222,569.849,0.0
56773.0,STARLINK-6296,PAYLOAD,2024-05-08 13:24:48,14.98339966,0.000309,70.001,194.2413,269.4769,90.6036,-0.00011925,-1.516e-05,0.0,0 STARLINK-6296,1 56773U 23078G   24129.55888995 -.00001516  00000-0 -11925-3 0  9999,2 56773  70.0010 194.2413 0003090 269.4769  90.6036 14.98339966 53287,6950.162,96.106,574.175,569.879,0.0
56773.0,STARLINK-6296,PAYLOAD,2024-05-08 21:25:28,14.98339005,0.0003129,70.001,193.4,269.5229,90.5572,-0.00014381,-1.809e-05,0.0,0 STARLINK-6296,1 56773U 23078G   24129.89268928 -.00001809  00000-0 -14381-3 0  9998,2 56773  70.0010 193.4000 0003129 269.5229  90.5572 14.98339005 53339,6950.165,96.106,574.205,569.855,0.0
56773.0,STARLINK-6296,PAYLOAD,2024-05-09 03:50:00,14.98328198,0.0003005,70.0011,192.7271,269.6518,90.4296,2.4289e-05,1.97e-06,0.0,0 STARLINK-6296,1 56773U 23078G   24130.15973162  .00000197  00000-0  24289-4 0  9998,2 56773  70.0011 192.7271 0003005 269.6518  90.4296 14.98328198 53633,6950.198,96.107,574.152,569.975,0.0
56773.0,STARLINK-6296,PAYLOAD,2024-05-09 13:26:49,14.98329601,0.000301,70.0011,191.7171,269.8867,90.1947,3.6119e-05,3.38e-06,0.0,0 STARLINK-6296,1 56773U 23078G   24130.56029078  .00000338  00000-0  36119-4 0  9993,2 56773  70.0011 191.7171 0003010 269.8867  90.1947 14.98329601 53434,6950.194,96.107,574.151,569.967,0.0
56773.0,STARLINK-6296,PAYLOAD,2024-05-10 03:52:01,14.98328803,0.0003009,70.001,190.2024,269.9985,90.0829,-7.7245e-06,-1.85e-06,0.0,0 STARLINK-6296,1 56773U 23078G   24131.16113295 -.00000185  00000-0 -77245-5 0  9993,2 56773  70.0010 190.2024 0003009 269.9985  90.0829 14.98328803 53783,6950.197,96.107,574.153,569.97,0.0
56773.0,STARLINK-6296,PAYLOAD,2024-05-10 13:28:49,14.98335413,0.0003005,70.001,189.1928,271.447,88.6345,6.1672e-05,6.43e-06,0.0,0 STARLINK-6296,1 56773U 23078G   24131.56168678  .00000643  00000-0  61672-4 0  9995,2 56773  70.0010 189.1928 0003005 271.4470  88.6345 14.98335413 53585,6950.176,96.107,574.13,569.953,0.0
56773.0,STARLINK-6296,PAYLOAD,2024-05-11 11:54:39,14.98372142,0.0002923,70.001,186.8364,268.6808,91.4016,0.00043315,5.085e-05,0.0,0 STARLINK-6296,1 56773U 23078G   24132.49628665  .00005085  00000-0  43315-3 0  9993,2 56773  70.0010 186.8364 0002923 268.6808  91.4016 14.98372142 53985,6950.063,96.104,573.959,569.896,0.0
